STARLINK-36143          
1 67056U 25294AC  25365.50002315  .00025098  00000+0  43298-3 0  9995
2 67056  43.0002  68.5811 0001399 281.8209 237.6660 15.50532339  3319
STARLINK-36141          
1 67057U 25294AD  25365.50002315  .00007419  00000+0  13239-3 0  9995
2 67057  43.0000  68.5858 0001449 276.6006 240.9937 15.50531678  3232
STARLINK-35767          
1 67058U 25294AE  25365.50002315  .00033122  00000+0  56903-3 0  9991
2 67058  43.0003  68.5911 0001126 275.6024 240.0614 15.50528921  3114
HULIANWANG DIGUI-119    
1 67059U 25295A   25365.42791483  .00000492  00000+0  27819-3 0  9993
2 67059  50.0045 293.4291 0013935 312.5702  47.4035 14.24622907  2781
HULIANWANG DIGUI-120    
1 67060U 25295B   25365.42302875  .00000548  00000+0  30233-3 0  9994
2 67060  50.0053 293.4038 0013305 313.1787  46.8013 14.24624580  2780
HULIANWANG DIGUI-121    
1 67061U 25295C   25365.42480316  .00000538  00000+0  29779-3 0  9994
2 67061  50.0016 293.3993 0013212 312.3985  47.5809 14.24641448  2780
HULIANWANG DIGUI-122    
1 67062U 25295D   25365.42210626  .00000568  00000+0  31103-3 0  9997
2 67062  50.0047 293.3968 0013050 318.3479  41.6440 14.24616605  2784
HULIANWANG DIGUI-123    
1 67063U 25295E   25365.42109118  .00000576  00000+0  31432-3 0  9995
2 67063  50.0054 293.3945 0011992 317.8646  42.1344 14.24622225  2785
HULIANWANG DIGUI-124    
1 67064U 25295F   25365.42012756  .00000576  00000+0  31440-3 0  9996
2 67064  50.0012 293.3717 0011862 311.5386  48.4509 14.24626169  2788
HULIANWANG DIGUI-125    
1 67065U 25295G   25365.41905775  .00000587  00000+0  31884-3 0  9992
2 67065  50.0005 293.3630 0011984 319.5008  40.5012 14.24634035  2782
HULIANWANG DIGUI-126    
1 67066U 25295H   25365.41807088  .00000596  00000+0  32268-3 0  9998
2 67066  50.0008 293.3575 0011272 313.0937  46.9032 14.24654343  2780
HULIANWANG DIGUI-127    
1 67067U 25295J   25364.50520838 -.00001248  00000+0 -46454-3 0  9992
2 67067  50.0048 297.2058 0010680 316.5628  43.4443 14.24667172  2659
